NORAD_CAT_ID,OBJECT_NAME,OBJECT_TYPE,EPOCH,MEAN_MOTION,ECCENTRICITY,INCLINATION,RA_OF_ASC_NODE,ARG_OF_PERICENTER,MEAN_ANOMALY,BSTAR,MEAN_MOTION_DOT,MEAN_MOTION_DDOT,TLE_LINE0,TLE_LINE1,TLE_LINE2,SEMIMAJOR_AXIS,PERIOD,APOGEE,PERIGEE,DECAYED
52848.0,STARLINK-4202,PAYLOAD,2024-02-18 13:30:34,15.08843529,0.0001191,53.2155,161.5727,91.7617,268.3512,-2.8278e-07,-2.92e-06,0.0,0 STARLINK-4202,1 52848U 22062U   24049.56289956 -.00000292  00000-0 -28278-6 0  9996,2 52848  53.2155 161.5727 0001191  91.7617 268.3512 15.08843529 92544,6917.87,95.437,540.559,538.911,0.0
52848.0,STARLINK-4202,PAYLOAD,2024-02-19 13:21:21,15.08845975,0.0001395,53.2172,157.1111,101.4538,258.6611,5.305e-05,5.57e-06,0.0,0 STARLINK-4202,1 52848U 22062U   24050.55649797  .00000557  00000-0  53050-4 0  9996,2 52848  53.2172 157.1111 0001395 101.4538 258.6611 15.08845975 92693,6917.862,95.437,540.692,538.762,0.0
52848.0,STARLINK-4202,PAYLOAD,2024-02-20 11:36:46,15.08821058,0.0001564,53.2178,152.9485,101.9921,258.1246,0.00030001,4.487e-05,0.0,0 STARLINK-4202,1 52848U 22062U   24051.48386903  .00004487  00000-0  30001-3 0  9992,2 52848  53.2178 152.9485 0001564 101.9921 258.1246 15.08821058 93321,6917.938,95.439,540.885,538.721,0.0
52848.0,STARLINK-4202,PAYLOAD,2024-02-20 13:12:08,15.08842963,0.0001368,53.2159,152.6504,89.653,270.4618,5.8945e-05,6.5e-06,0.0,0 STARLINK-4202,1 52848U 22062U   24051.55010058  .00000650  00000-0  58945-4 0  9991,2 52848  53.2159 152.6504 0001368  89.6530 270.4618 15.08842963 92843,6917.871,95.437,540.683,538.79,0.0
52848.0,STARLINK-4202,PAYLOAD,2024-02-21 13:02:55,15.08848472,0.0001394,53.2168,148.189,92.1664,267.9488,5.3655e-05,5.66e-06,0.0,0 STARLINK-4202,1 52848U 22062U   24052.54369492  .00000566  00000-0  53655-4 0  9999,2 52848  53.2168 148.1890 0001394  92.1664 267.9488 15.08848472 92990,6917.854,95.437,540.684,538.755,0.0
52848.0,STARLINK-4202,PAYLOAD,2024-02-22 11:18:19,15.08847306,0.0001374,53.2168,144.0256,95.477,264.6378,7.6133e-05,9.24e-06,0.0,0 STARLINK-4202,1 52848U 22062U   24053.47105474  .00000924  00000-0  76133-4 0  9994,2 52848  53.2168 144.0256 0001374  95.4770 264.6378 15.08847306 93621,6917.858,95.437,540.674,538.773,0.0
52848.0,STARLINK-4202,PAYLOAD,2024-02-22 12:53:42,15.08846119,0.0001337,53.217,143.7293,88.2488,271.8658,5.9642e-05,6.62e-06,0.0,0 STARLINK-4202,1 52848U 22062U   24053.53729675  .00000662  00000-0  59642-4 0  9991,2 52848  53.2170 143.7293 0001337  88.2488 271.8658 15.08846119 93145,6917.862,95.437,540.652,538.802,0.0
52848.0,STARLINK-4202,PAYLOAD,2024-02-23 12:44:29,15.08849374,0.0001367,53.2168,139.2707,91.5869,268.5279,3.0113e-05,1.91e-06,0.0,0 STARLINK-4202,1 52848U 22062U   24054.53089400  .00000191  00000-0  30113-4 0  9996,2 52848  53.2168 139.2707 0001367  91.5869 268.5279 15.08849374 93783,6917.852,95.437,540.662,538.771,0.0
52848.0,STARLINK-4202,PAYLOAD,2024-02-23 22:16:48,15.08846769,0.0001358,53.2169,137.4857,87.4185,272.6963,-1.344e-05,-5.02e-06,0.0,0 STARLINK-4202,1 52848U 22062U   24054.92833553 -.00000502  00000-0 -13440-4 0  9997,2 52848  53.2169 137.4857 0001358  87.4185 272.6963 15.08846769 93359,6917.86,95.437,540.664,538.785,0.0
52848.0,STARLINK-4202,PAYLOAD,2024-02-24 04:38:21,15.08832831,0.0001846,53.2175,136.2965,89.1852,270.9352,1.5078e-05,-4.8e-07,0.0,0 STARLINK-4202,1 52848U 22062U   24055.19330631 -.00000048  00000-0  15078-4 0  9999,2 52848  53.2175 136.2965 0001846  89.1852 270.9352 15.08832831 93881,6917.902,95.438,541.044,538.49,0.0
52848.0,STARLINK-4202,PAYLOAD,2024-02-24 14:10:40,15.0883311,0.0001576,53.2183,134.5127,93.8431,266.2741,1.8855e-05,1.2e-07,0.0,0 STARLINK-4202,1 52848U 22062U   24055.59074758  .00000012  00000-0  18855-4 0  9994,2 52848  53.2183 134.5127 0001576  93.8431 266.2741 15.08833110 93450,6917.901,95.438,540.857,538.676,0.0
52848.0,STARLINK-4202,PAYLOAD,2024-02-25 12:26:03,15.08849874,0.0001567,53.2178,130.3495,88.4595,271.6577,7.0917e-05,8.41e-06,0.0,0 STARLINK-4202,1 52848U 22062U   24056.51809753  .00000841  00000-0  70917-4 0  9995,2 52848  53.2178 130.3495 0001567  88.4595 271.6577 15.08849874 94088,6917.85,95.437,540.799,538.631,0.0
52848.0,STARLINK-4202,PAYLOAD,2024-02-25 14:01:26,15.08851891,0.0001554,53.2173,130.0514,84.3798,275.7372,8.7126e-05,1.099e-05,0.0,0 STARLINK-4202,1 52848U 22062U   24056.58433583  .00001099  00000-0  87126-4 0  9992,2 52848  53.2173 130.0514 0001554  84.3798 275.7372 15.08851891 93605,6917.844,95.437,540.784,538.634,0.0
52848.0,STARLINK-4202,PAYLOAD,2024-02-25 21:58:22,15.0884519,0.0001324,53.2169,128.5633,92.7527,267.3616,-2.5551e-05,-6.95e-06,0.0,0 STARLINK-4202,1 52848U 22062U   24056.91554093 -.00000695  00000-0 -25551-4 0  9996,2 52848  53.2169 128.5633 0001324  92.7527 267.3616 15.08845190 93650,6917.865,95.437,540.645,538.814,0.0
52848.0,STARLINK-4202,PAYLOAD,2024-02-26 04:19:55,15.08832039,0.0001333,53.218,127.376,90.4439,269.6706,0.00011089,1.477e-05,0.0,0 STARLINK-4202,1 52848U 22062U   24057.18050703  .00001477  00000-0  11089-3 0  9992,2 52848  53.2180 127.3760 0001333  90.4439 269.6706 15.08832039 94180,6917.905,95.438,540.692,538.848,0.0
52848.0,STARLINK-4202,PAYLOAD,2024-02-26 12:16:52,15.08829853,0.0001646,53.2172,125.8891,91.9735,268.1445,5.2643e-05,5.5e-06,0.0,0 STARLINK-4202,1 52848U 22062U   24057.51171431  .00000550  00000-0  52643-4 0  9994,2 52848  53.2172 125.8891 0001646  91.9735 268.1445 15.08829853 93746,6917.911,95.438,540.915,538.638,0.0
52848.0,STARLINK-4202,PAYLOAD,2024-02-27 10:32:15,15.08851862,0.0001509,53.2166,121.7261,88.2062,271.9103,2.4977e-05,1.1e-06,0.0,0 STARLINK-4202,1 52848U 22062U   24058.43906254  .00000110  00000-0  24977-4 0  9996,2 52848  53.2166 121.7261 0001509  88.2062 271.9103 15.08851862 94373,6917.844,95.437,540.753,538.665,0.0
52848.0,STARLINK-4202,PAYLOAD,2024-02-28 10:23:02,15.08837708,0.0001407,53.2169,117.2655,97.4939,262.6213,0.00022123,3.234e-05,0.0,0 STARLINK-4202,1 52848U 22062U   24059.43266680  .00003234  00000-0  22123-3 0  9999,2 52848  53.2169 117.2655 0001407  97.4939 262.6213 15.08837708 94524,6917.887,95.438,540.726,538.779,0.0
52848.0,STARLINK-4202,PAYLOAD,2024-02-28 13:33:48,15.0884866,0.0001568,53.2186,116.6695,112.706,247.4098,0.00017048,2.427e-05,0.0,0 STARLINK-4202,1 52848U 22062U   24059.56513976  .00002427  00000-0  17048-3 0  9999,2 52848  53.2186 116.6695 0001568 112.7060 247.4098 15.08848660 94053,6917.854,95.437,540.804,538.634,0.0
52848.0,STARLINK-4202,PAYLOAD,2024-02-29 03:52:19,15.08818075,0.0001274,53.2183,113.9938,88.5343,271.5795,-0.00019296,-3.356e-05,0.0,0 STARLINK-4202,1 52848U 22062U   24060.16133451 -.00003356  00000-0 -19296-3 0  9994,2 52848  53.2183 113.9938 0001274  88.5343 271.5795 15.08818075 94631,6917.947,95.439,540.694,538.931,0.0
52848.0,STARLINK-4202,PAYLOAD,2024-02-29 10:13:51,15.08822675,0.0001715,53.2172,112.8054,99.1345,260.9841,-0.00010829,-2.01e-05,0.0,0 STARLINK-4202,1 52848U 22062U   24060.42629245 -.00002010  00000-0 -10829-3 0  9993,2 52848  53.2172 112.8054 0001715  99.1345 260.9841 15.08822675 94675,6917.933,95.439,540.985,538.612,0.0
52848.0,STARLINK-4202,PAYLOAD,2024-03-01 03:43:05,15.08833535,0.0001478,53.2174,109.5329,110.7722,249.3428,4.8206e-05,4.79e-06,0.0,0 STARLINK-4202,1 52848U 22062U   24061.15492349  .00000479  00000-0  48206-4 0  9993,2 52848  53.2174 109.5329 0001478 110.7722 249.3428 15.08833535 94781,6917.9,95.438,540.788,538.743,0.0
52848.0,STARLINK-4202,PAYLOAD,2024-03-01 10:04:36,15.0884929,0.0001704,53.2177,108.3438,100.4448,259.6737,0.00023836,3.508e-05,0.0,0 STARLINK-4202,1 52848U 22062U   24061.41987068  .00003508  00000-0  23836-3 0  9996,2 52848  53.2177 108.3438 0001704 100.4448 259.6737 15.08849290 94338,6917.852,95.437,540.896,538.538,0.0
52848.0,STARLINK-4202,PAYLOAD,2024-03-01 19:36:56,15.08839145,0.0001703,53.2175,106.5594,98.0604,262.0581,0.00027725,4.127e-05,0.0,0 STARLINK-4202,1 52848U 22062U   24061.81731699  .00004127  00000-0  27725-3 0  9996,2 52848  53.2175 106.5594 0001703  98.0604 262.0581 15.08839145 94887,6917.883,95.438,540.926,538.57,0.0
52848.0,STARLINK-4202,PAYLOAD,2024-03-02 08:20:01,15.08848297,0.0001539,53.2159,104.1797,89.2896,270.8272,0.00034493,5.207e-05,0.0,0 STARLINK-4202,1 52848U 22062U   24062.34723381  .00005207  00000-0  34493-3 0  9994,2 52848  53.2159 104.1797 0001539  89.2896 270.8272 15.08848297 94477,6917.855,95.437,540.785,538.655,0.0
52848.0,STARLINK-4202,PAYLOAD,2024-03-03 11:21:34,15.08847435,0.0001562,53.2155,99.1233,85.7782,274.3388,-6.3755e-06,-3.9e-06,0.0,0 STARLINK-4202,1 52848U 22062U   24063.47331654 -.00000390  00000-0 -63755-5 0  9992,2 52848  53.2155  99.1233 0001562  85.7782 274.3388 15.08847435 95136,6917.858,95.437,540.803,538.642,0.0
52848.0,STARLINK-4202,PAYLOAD,2024-03-04 09:36:57,15.08857471,0.0001712,53.2165,94.9623,93.1469,266.9719,1.7145e-05,-1.5e-07,0.0,0 STARLINK-4202,1 52848U 22062U   24064.40066416 -.00000015  00000-0  17145-4 0  9991,2 52848  53.2165  94.9623 0001712  93.1469 266.9719 15.08857471 95276,6917.827,95.436,540.876,538.508,0.0
52848.0,STARLINK-4202,PAYLOAD,2024-03-04 19:09:17,15.0884112,0.000168,53.2173,93.1758,91.4233,268.6952,3.6585e-05,2.94e-06,0.0,0 STARLINK-4202,1 52848U 22062U   24064.79811357  .00000294  00000-0  36585-4 0  9992,2 52848  53.2173  93.1758 0001680  91.4233 268.6952 15.08841120 95338,6917.877,95.437,540.904,538.58,0.0
52848.0,STARLINK-4202,PAYLOAD,2024-03-05 09:27:46,15.08829289,0.0001952,53.2178,90.4971,94.8173,265.3042,-5.1901e-06,-3.71e-06,0.0,0 STARLINK-4202,1 52848U 22062U   24065.39428455 -.00000371  00000-0 -51901-5 0  9990,2 52848  53.2178  90.4971 0001952  94.8173 265.3042 15.08829289 94933,6917.913,95.438,541.129,538.428,0.0
52848.0,STARLINK-4202,PAYLOAD,2024-03-05 19:00:04,15.08842504,0.000188,53.2174,88.7121,97.8987,262.2219,0.00011421,1.53e-05,0.0,0 STARLINK-4202,1 52848U 22062U   24065.79171422  .00001530  00000-0  11421-3 0  9990,2 52848  53.2174  88.7121 0001880  97.8987 262.2219 15.08842504 95480,6917.873,95.437,541.038,538.437,0.0
